OBJECT_NAME,OBJECT_ID,EPOCH,MEAN_MOTION,ECCENTRICITY,INCLINATION,RA_OF_ASC_NODE,ARG_OF_PERICENTER,MEAN_ANOMALY,EPHEMERIS_TYPE,CLASSIFICATION_TYPE,NORAD_CAT_ID,ELEMENT_SET_NO,REV_AT_EPOCH,BSTAR,MEAN_MOTION_DOT,MEAN_MOTION_DDOT
CUTE-1 (CO-55),2003-031E,2026-07-12T19:38:00.321792,14.24350634,.0010788,98.6742,202.0549,108.7901,251.4449,0,U,27844,999,19532,.88191E-4,.16E-5,0
CUBESAT XI-IV (CO-57),2003-031J,2026-07-12T12:55:06.299904,14.23633637,.00104483,98.6772,201.4707,126.3839,233.8305,0,U,27848,999,19498,.7534821E-4,.128E-5,0
CUBESAT XI-V,2005-043F,2026-07-12T21:09:56.819232,14.72699028,.0015185,98.3010,350.0479,122.0632,238.2052,0,U,28895,999,10553,.1244E-3,.741E-5,0
CUTE-1.7+APD II (CO-65),2008-021C,2026-07-13T03:59:30.157728,15.09688770,.0007211,97.8287,176.1316,307.6464,52.4109,0,U,32785,999,98911,.20242E-3,.3195E-4,0
CANX-2,2008-021H,2026-07-12T22:33:32.588064,15.05798688,.000894,97.8655,174.2233,326.6946,33.3716,0,U,32790,999,98868,.14782E-3,.2078E-4,0
SEEDS II (CO-66),2008-021J,2026-07-12T21:58:07.873824,15.33618022,.0002827,97.7523,193.0586,161.8962,198.2380,0,U,32791,999,99123,.39018E-3,.12605E-3,0
SWISSCUBE,2009-051B,2026-07-12T05:01:01.202880,14.62527427,.0007715,98.4012,101.5313,127.0520,233.1388,0,U,35932,999,89281,.10865E-3,.502E-5,0
BEESAT-1,2009-051C,2026-07-12T17:03:25.723296,14.61759519,.0005984,98.3939,101.6234,136.3628,223.8047,0,U,35933,999,89291,.88659E-4,.393E-5,0
ITUPSAT1,2009-051E,2026-07-11T23:17:18.975264,14.60475983,.0007861,98.4023,100.0372,152.4089,207.7529,0,U,35935,999,89235,.90105677E-4,.388E-5,0
TISAT 1,2010-035E,2026-07-12T20:21:21.626208,15.32676084,.0004322,98.0705,142.6943,124.5558,235.6090,0,U,36799,999,87163,.46724E-3,.14671E-3,0
STRAND-1,2013-009E,2026-07-12T11:13:41.134080,14.37177891,.00092621,98.3932,13.0813,148.5894,211.5848,0,U,39090,999,70069,.64298601E-4,.149E-5,0
BRITE-AUSTRIA,2013-009F,2026-07-12T23:30:06.302304,14.36551984,.0010641,98.4006,12.7781,156.9749,203.1916,0,U,39091,999,70075,.44937E-4,.89E-6,0
NEE-01 PEGASO,2013-018B,2026-07-12T23:44:03.535584,14.93783715,.0013696,98.1249,338.9978,80.7615,279.5152,0,U,39151,999,71455,.10536E-3,.1057E-4,0
POPACS 2,2013-055E,2026-07-13T04:56:34.842048,14.91964314,.0415091,80.9920,114.4009,110.2648,254.3692,0,U,39269,999,66709,.22645E-3,.13879E-3,-.91286E-6
POPACS 3,2013-055F,2026-07-12T11:16:54.075648,14.56613622,.05491322,80.9985,201.7622,352.9872,6.3847,0,U,39270,999,64223,.20828069E-3,.8784E-4,0
ZACUBE-1 (TSHEPISOSAT),2013-066B,2026-07-12T22:26:41.744832,15.01323430,.0043901,97.8010,156.3996,162.4582,197.8170,0,U,39417,999,68459,.1153E-3,.145E-4,0
WNISAT-1,2013-066H,2026-07-12T21:02:49.937568,14.58116952,.0163743,97.7231,341.2138,150.5792,210.4750,0,U,39423,999,67047,.1289E-3,.666E-5,0
TRITON-1,2013-066M,2026-07-13T03:49:42.966048,14.81789601,.0090397,97.8228,103.3738,148.6807,211.9835,0,U,39427,999,67793,.89471E-4,.701E-5,0
GOMX-1,2013-066Q,2026-07-13T04:43:10.440768,14.69539835,.0128474,97.6476,33.0183,354.6506,5.3320,0,U,39430,999,67373,.1261E-3,.796E-5,0
CUBEBUG-2 (LO-74),2013-066AA,2026-07-12T20:25:25.434048,14.93957370,.0055957,97.8909,142.9428,303.3134,56.2734,0,U,39440,999,68082,.17551E-3,.1863E-4,0
NEE-02 KRYSAOR,2013-066AB,2026-07-13T01:18:09.516384,14.86734512,.0065595,97.8895,133.0870,346.3487,13.5953,0,U,39441,999,68004,.1564E-3,.1387E-4,0
FUNCUBE-1 (AO-73),2013-066AE,2026-07-13T04:07:27.865056,15.09803151,.0038087,97.8287,166.1678,114.1842,246.3375,0,U,39444,999,68358,.22375E-3,.3608E-4,0
UWE-3,2013-066AG,2026-07-12T19:32:08.748096,14.97190018,.004751,97.8701,150.0656,232.8178,126.8701,0,U,39446,999,68141,.16916E-3,.1937E-4,0
BRITE-CA1 (TORONTO),2014-033L,2026-07-13T04:42:32.213088,14.72720200,.0078299,97.9769,322.6494,192.6738,167.2503,0,U,40020,999,64604,.89509E-4,.545E-5,0
DUCHIFAT-1,2014-033M,2026-07-12T16:27:26.176032,15.70510170,.0002165,98.0440,256.5455,257.9613,102.1405,0,U,40021,999,65974,.89146E-3,.110396E-2,0
NANOSATC-BR1,2014-033Q,2026-07-12T13:12:06.652800,15.32271898,.0005323,98.0714,228.1994,102.2683,257.9153,0,U,40024,999,65786,.35481E-3,.10975E-3,0
QB50P1,2014-033R,2026-07-12T12:29:54.904704,15.18640557,.00102199,98.0964,206.4495,132.7489,227.4606,0,U,40025,999,65687,.25721199E-3,.5256E-4,0
QB50P2,2014-033Y,2026-07-12T22:03:47.665152,15.15489609,.000935,98.0758,192.4084,90.0706,270.1596,0,U,40032,999,65656,.22191E-3,.413E-4,0
PERSEUS-M2,2014-033AD,2026-07-13T03:45:30.229632,14.95588578,.0010704,97.9968,145.2283,205.8506,154.2180,0,U,40037,999,65466,.1585E-3,.17E-4,0
PERSEUS-M1,2014-033AF,2026-07-13T03:03:34.388640,14.95710869,.0010796,97.9652,138.6876,203.5717,156.5010,0,U,40039,999,65451,.12428E-3,.1324E-4,0
